AE3VA                   
1 64563U 25135AM  26193.01826504  .00003326  00000+0  29076-3 0  9997
2 64563  97.7708 307.7634 0003010 157.3764 202.7591 14.97451248 57655
TIME FLIES              
1 64564U 25135AN  26193.28856022  .00001370  00000+0  13030-3 0  9995
2 64564  97.7733 307.5183 0002390 154.2646 205.8694 14.95095203 57657
LEMUR-2-HUBBLE-4        
1 64565U 25135AP  26193.26061450  .00001116  00000+0  11088-3 0  9996
2 64565  97.7716 306.8753 0002440 170.3654 189.7613 14.93680043 57615
ARVAKER-3               
1 64566U 25135AQ  26193.27947023  .00001182  00000+0  11710-3 0  9992
2 64566  97.7746 307.1290 0001569 169.9213 190.2039 14.93712543 57626
ARVAKER-2               
1 64567U 25135AR  26193.29001617  .00000851  00000+0  85933-4 0  9996
2 64567  97.7758 307.1721 0001123 161.5824 198.5437 14.93651828 57622
IRIDE-MS2-HEO-3         
1 64568U 25135AS  26193.30058309  .00000779  00000+0  82532-4 0  9990
2 64568  97.7753 307.1064 0001080 138.7136 221.4165 14.91927247 57625
IRIDE-MS2-HEO-2         
1 64569U 25135AT  26193.24897171  .00001069  00000+0  10627-3 0  9990
2 64569  97.7774 307.2738 0000259 235.9960 124.1236 14.93743150 57629
ICEYE-X54               
1 64570U 25135AU  26193.26371010  .00001968  00000+0  18653-3 0  9998
2 64570  97.7743 307.4467 0001853 191.0700 169.0480 14.94722020 57648
IRIDE-MS2-HEO-5         
1 64571U 25135AV  26193.27766535  .00001034  00000+0  10777-3 0  9993
2 64571  97.7748 307.1133 0000440 173.8960 186.2265 14.91909595 57629
ICEYE-X52               
1 64572U 25135AW  26193.25945465  .00001265  00000+0  12510-3 0  9996
2 64572  97.7766 307.2358 0001015 199.5666 160.5515 14.93645802 57620
MUSAT-3ALPHA            
1 64573U 25135AX  26192.83164514  .00000915  00000+0  71241-4 0  9996
2 64573  97.7107 306.9937 0003785 144.2110 215.9369 15.03703278 57633
ICEYE-X56               
1 64574U 25135AY  26193.25315208  .00001880  00000+0  17390-3 0  9998
2 64574  97.7762 308.0188 0001162 208.0794 152.0364 14.95750458 57678
ION SCV-018             
1 64575U 25135AZ  26193.25900824  .00000745  00000+0  73966-4 0  9994
2 64575  97.7799 308.1186 0012076 202.7923 157.2762 14.94691886 57676
IRIDE-MS2-HEO-6         
1 64576U 25135BA  26193.25450617  .00000862  00000+0  90768-4 0  9994
2 64576  97.7747 307.1166 0000437 178.9053 181.2167 14.91911042 57620
LYRA-3                  
1 64577U 25135BB  26193.26954327  .00000716  00000+0  11457-3 0  9998
2 64577  97.7748 297.2701 0019409 260.2245  99.6773 14.74545411 56968
ICEYE-X57               
1 64578U 25135BC  26193.13448542  .00002781  00000+0  22351-3 0  9991
2 64578  97.8011 309.6770 0002081  63.1871 296.9565 15.00854760 57760
GRUS-3ALPHA             
1 64579U 25135BD  26193.28737453  .00000576  00000+0  60606-4 0  9996
2 64579  97.7786 307.2705 0001500 268.8187  91.2860 14.93185373 57627
YAM-10                  
1 64580U 25135BE  26192.82782055  .00000808  00000+0  85502-4 0  9995
2 64580  97.7751 306.3409 0001646 267.2242  92.8789 14.91894569 57537
ICEYE-X55               
1 64581U 25135BF  26193.25982786  .00002081  00000+0  19392-3 0  9995
2 64581  97.7763 307.8529 0001822 250.6583 109.4440 14.95350576 57662
IRIDE-MS2-HEO-4         
1 64582U 25135BG  26193.26617922  .00001128  00000+0  11714-3 0  9995
2 64582  97.7748 307.2717 0000513 183.2896 176.8320 14.91900724 57637
CAPELLA-17 (ACADIA-7)   
1 64583U 25135BH  26192.82540972  .00003043  00000+0  30871-3 0  9990
2 64583  97.7704 306.0834 0003964 264.8386  95.2380 14.91599654 57524
ICEYE-X53               
1 64584U 25135BJ  26193.29171767  .00000096  00000+0  12269-4 0  9992
2 64584  97.7365 309.9641 0001775 166.9675 193.1595 15.00881563 57842
IRIDE-MS2-HEO-9         
1 64585U 25135BK  26193.31116155  .00000698  00000+0  74486-4 0  9993
2 64585  97.7782 307.5113 0000235 183.6286 176.4931 14.91927401 57645
LEMUR-2-SEJONG-2        
1 64586U 25135BL  26193.30705601  .00002178  00000+0  19492-3 0  9993
2 64586  97.7703 308.1612 0003728 232.5990 127.4892 14.96898702 57701
IRIDE-MS2-HEO-8         
1 64587U 25135BM  26193.28949638  .00000993  00000+0  10369-3 0  9998
2 64587  97.7757 307.4423 0000220 198.2627 161.8584 14.91933499 57643
BIFROST-DNK             
1 64588U 25135BN  26193.24442488  .00001184  00000+0  11424-3 0  9992
2 64588  97.7764 307.7012 0002964 258.7546 101.3341 14.94754832 57654
SATORO-T3               
1 64589U 25135BP  26193.27214947  .00001571  00000+0  15112-3 0  9991
2 64589  97.7735 307.5466 0003599 237.9710 122.1161 14.94430630 57659
TRANSPORTER-14 OBJECT BQ
1 64590U 25135BQ  26192.83684403  .00000605  00000+0  61889-4 0  9992
2 64590  97.7739 307.0301 0004067 242.7662 117.3144 14.94142968 57582
AE2A                    
1 64591U 25135BR  26193.28416508  .00002510  00000+0  22121-3 0  9994
2 64591  97.7719 308.3562 0003825 233.6456 126.4413 14.97350115 57718
HUBBLE 7                
1 64592U 25135BS  26192.47303102  .00001330  00000+0  13089-3 0  9992
2 64592  97.7773 306.9063 0001390 253.6080 106.4987 14.93759037 57535
STARLINK-34280          
1 64594U 25137A   26193.25002315  .00056191  00000+0  16636-2 0  9990
2 64594  53.1593 115.9041 0001411  79.7969  24.2331 15.34365712  5873
STARLINK-34517          
1 64595U 25137B   26193.22069698  .00019901  00000+0  59847-3 0  9995
2 64595  53.1590 115.9206 0001158 105.6863 254.4268 15.34405219 59810
STARLINK-34510          
1 64596U 25137C   26193.17450216  .00018392  00000+0  55419-3 0  9994
2 64596  53.1581 116.3449 0000711  68.2836 291.8242 15.34396711 59805
STARLINK-34486          
1 64597U 25137D   26193.20841544  .00013921  00000+0  48115-3 0  9995
2 64597  53.1591 117.2575 0001190  89.4840 270.6298 15.30206738 59798
STARLINK-34463          
1 64598U 25137E   26193.22280071  .00017502  00000+0  52780-3 0  9992
2 64598  53.1595 115.9281 0001170  97.2130 262.9005 15.34407304 59818
STARLINK-34294          
1 64599U 25137F   26192.97276734  .00006325  00000+0  19809-3 0  9991
2 64599  53.1594 117.2168 0001031 107.4330 252.6785 15.34414386 59773
STARLINK-34504          
1 64600U 25137G   26193.20630834  .00020743  00000+0  71079-3 0  9993
2 64600  53.1543 117.2509 0001507  81.6007 278.5164 15.30186979 59791
STARLINK-34508          
1 64601U 25137H   26193.22624454  .00014017  00000+0  48415-3 0  9992
2 64601  53.1562 116.6600 0002706  92.6413 267.4897 15.30222844 59807
STARLINK-34435          
1 64602U 25137J   26193.18081082  .00025079  00000+0  75069-3 0  9997
2 64602  53.1588 116.3807 0001319  99.2363 260.8789 15.34408893 59809
STARLINK-34475          
1 64603U 25137K   26193.17132992  .00020023  00000+0  61830-3 0  9999
2 64603  53.1585 116.3214 0000926  90.2443 269.8665 15.33558911 59800
STARLINK-34488          
1 64604U 25137L   26193.15775874  .00008342  00000+0  29349-3 0  9999
2 64604  53.1589 116.9436 0001539  84.8734 275.2442 15.30197091 59797
STARLINK-34516          
1 64605U 25137M   26193.19941101  .00016544  00000+0  54365-3 0  9991
2 64605  53.1567 115.7930 0002628  36.1961 323.9218 15.31701971 59917
STARLINK-34073          
1 64606U 25137N   26193.21885963  .00012300  00000+0  42682-3 0  9993
2 64606  53.1564 116.6111 0001178  85.6835 274.4300 15.30191623 59686
STARLINK-34532          
1 64607U 25137P   26193.22707998  .00017658  00000+0  53223-3 0  9990
2 64607  53.1617 125.8951 0000955  81.1916 278.9195 15.34417298 59676
STARLINK-34519          
1 64608U 25137Q   26193.17870372  .00015427  00000+0  46666-3 0  9997
2 64608  53.1592 116.3685 0001011  96.7816 263.3302 15.34408265 59800
STARLINK-34513          
1 64609U 25137R   26192.94972589  .00022345  00000+0  67050-3 0  9992
2 64609  53.1572 117.7796 0000473 114.8085 245.2966 15.34400186 59852
STARLINK-34569          
1 64610U 25137S   26192.00002315 -.00027745  00000+0 -81288-3 0  9992
2 64610  53.1589 121.7862 0001246  88.2760 283.8832 15.34405184  5858
STARLINK-34494          
1 64611U 25137T   26193.22490235  .00014208  00000+0  43065-3 0  9999
2 64611  53.1696 115.9440 0001845 353.7566   6.3414 15.34415079 59817
STARLINK-34521          
1 64612U 25137U   26193.22832589 -.00000371  00000+0 -38643-6 0  9999
2 64612  53.1562 116.6730 0001671 341.1411  18.9528 15.30222759 59808
STARLINK-34500          
1 64613U 25137V   26193.22702568 -.00029208  00000+0 -85871-3 0  9995
2 64613  53.1592 115.9565 0001837  96.6806 263.4406 15.34322989 59918
STARLINK-34440          
1 64614U 25137W   26192.99172195  .00018603  00000+0  55991-3 0  9991
2 64614  53.1589 117.3309 0001207 104.9907 255.1230 15.34424054 59776
STARLINK-34469          
1 64615U 25137X   26193.14929638 -.00001128  00000+0 -25947-4 0  9997
2 64615  53.1630 116.8812 0000495 136.5015 223.6025 15.30236429 59793
STARLINK-34413          
1 64616U 25137Y   26193.22911519  .00019426  00000+0  58455-3 0  9993
2 64616  53.1578 115.9698 0001128  86.2043 273.9088 15.34400845 59913
STARLINK-34417          
1 64617U 25137Z   26193.10667157  .00015749  00000+0  47628-3 0  9991
2 64617  53.1576 102.9097 0001192  84.4618 275.6520 15.34397932 60082
STARLINK-34415          
1 64618U 25137AA  26193.17239783  .00014687  00000+0  44503-3 0  9998
2 64618  53.1529 116.3344 0001712 224.7475 135.3389 15.34393931 59801
STARLINK-34416          
1 64619U 25137AB  26193.18501705  .00012446  00000+0  37892-3 0  9990
2 64619  53.1591 116.4009 0001021  61.7195 298.3911 15.34397278 59800
STARLINK-34414          
1 64620U 25137AC  26192.98751491 -.00003879  00000+0 -10385-3 0  9998
2 64620  53.1631 117.2964 0001752  89.7648 270.3555 15.34361558 59772
HAWK-12C                
1 64621U 25138A   26192.55918696  .00002661  00000+0  13236-3 0  9999
2 64621  97.4348 194.5915 0015568  62.5737 297.7079 15.18388166 57566
HAWK-12B                
1 64622U 25138B   26192.55936027  .00002653  00000+0  13202-3 0  9992
2 64622  97.4473 195.2793 0014454  58.7627 301.5021 15.18387603 57562
